{"type": "FeatureCollection", "features": [ {"type": "Feature", "properties": {"norad_id": 61186, "name": "BEIDOU-3 M25 (C47)", "group": "beidou", "lat": 5.718517336752086, "lon": 124.16065445921811, "alt_km": 21536.845176885723, "timestamp": "2025-12-26T06:43:29.777256+00:00", "meta": {"OBJECT_NAME": "BEIDOU-3 M25 (C47)", "OBJECT_ID": "2024-168B", "EPOCH": "2025-12-25T19:23:17.503008", "MEAN_MOTION": 1.86229973, "ECCENTRICITY": 0.00054096, "INCLINATION": 54.6304, "RA_OF_ASC_NODE": 308.2683, "ARG_OF_PERICENTER": 300.2841, "MEAN_ANOMALY": 276.0104, "EPHEMERIS_TYPE": 0, "CLASSIFICATION_TYPE": "U", "NORAD_CAT_ID": 61186, "ELEMENT_SET_NO": 999, "REV_AT_EPOCH": 855, "BSTAR": 0, "MEAN_MOTION_DOT": -5.5e-07, "MEAN_MOTION_DDOT": 0}, "tle": {"line1": "1 61186U 24168B   25359.80784147 -.00000055  00000+0  00000+0 0  9995", "line2": "2 61186  54.6304 308.2683 0005409 300.2841 276.0104  1.86229973  8557"}}, "geometry": {"type": "Point", "coordinates": [124.16065445921811, 5.718517336752086]}}, {"type": "Feature", "properties": {"norad_id": 61187, "name": "BEIDOU-3 M27 (C49)", "group": "beidou", "lat": -40.03584426530492, "lon": -88.38555035988865, "alt_km": 21526.94911384735, "timestamp": "2025-12-26T06:43:29.777267+00:00", "meta": {"OBJECT_NAME": "BEIDOU-3 M27 (C49)", "OBJECT_ID": "2024-168C", "EPOCH": "2025-12-25T00:22:38.802432", "MEAN_MOTION": 1.86230181, "ECCENTRICITY": 0.00025443, "INCLINATION": 54.6266, "RA_OF_ASC_NODE": 308.2793, "ARG_OF_PERICENTER": 341.3451, "MEAN_ANOMALY": 198.8284, "EPHEMERIS_TYPE": 0, "CLASSIFICATION_TYPE": "U", "NORAD_CAT_ID": 61187, "ELEMENT_SET_NO": 999, "REV_AT_EPOCH": 601, "BSTAR": 0, "MEAN_MOTION_DOT": -5.4e-07, "MEAN_MOTION_DDOT": 0}, "tle": {"line1": "1 61187U 24168C   25359.01572688 -.00000054  00000+0  00000+0 0  9993", "line2": "2 61187  54.6266 308.2793 0002544 341.3451 198.8284  1.86230181  6019"}}, "geometry": {"type": "Point", "coordinates": [-88.38555035988865, -40.03584426530492]}}]}